[{"OBJECT_NAME":"STARLINK-31675","OBJECT_ID":"2024-074Q","EPOCH":"2026-03-09T03:36:08.398944","MEAN_MOTION":15.27570707,"ECCENTRICITY":9.13e-6,"INCLINATION":43.002,"RA_OF_ASC_NODE":346.4129,"ARG_OF_PERICENTER":29.6362,"MEAN_ANOMALY":330.4495,"EPHEMERIS_TYPE":0,"CLASSIFICATION_TYPE":"U","NORAD_CAT_ID":59548,"ELEMENT_SET_NO":999,"REV_AT_EPOCH":10593,"BSTAR":-0.00011532771,"MEAN_MOTION_DOT":-3.433e-5,"MEAN_MOTION_DDOT":0},{"OBJECT_NAME":"JD 2","OBJECT_ID":"1984-012D","EPOCH":"2026-03-09T22:15:36.882144","MEAN_MOTION":13.7538851,"ECCENTRICITY":0.07532678,"INCLINATION":63.3059,"RA_OF_ASC_NODE":308.0564,"ARG_OF_PERICENTER":126.7288,"MEAN_ANOMALY":240.5384,"EPHEMERIS_TYPE":0,"CLASSIFICATION_TYPE":"U","NORAD_CAT_ID":14729,"ELEMENT_SET_NO":999,"REV_AT_EPOCH":33025,"BSTAR":0.00052355644,"MEAN_MOTION_DOT":4.484e-5,"MEAN_MOTION_DDOT":0}]
